[{"OBJECT_NAME":"STARLINK-6251","OBJECT_ID":"2023-088AR","EPOCH":"2026-03-09T22:00:01.999584","MEAN_MOTION":15.09464879,"ECCENTRICITY":0.00017173,"INCLINATION":42.9997,"RA_OF_ASC_NODE":93.0088,"ARG_OF_PERICENTER":295.5907,"MEAN_ANOMALY":164.0192,"EPHEMERIS_TYPE":0,"CLASSIFICATION_TYPE":"U","NORAD_CAT_ID":57087,"ELEMENT_SET_NO":999,"REV_AT_EPOCH":578,"BSTAR":0.0033899147,"MEAN_MOTION_DOT":0.00055431,"MEAN_MOTION_DDOT":0},{"OBJECT_NAME":"JILIN-01 KUANFU 02B 4","OBJECT_ID":"2024-169D","EPOCH":"2026-03-09T23:04:43.463424","MEAN_MOTION":15.0922271,"ECCENTRICITY":0.00080501,"INCLINATION":97.5522,"RA_OF_ASC_NODE":159.355,"ARG_OF_PERICENTER":260.1533,"MEAN_ANOMALY":99.8787,"EPHEMERIS_TYPE":0,"CLASSIFICATION_TYPE":"U","NORAD_CAT_ID":61192,"ELEMENT_SET_NO":999,"REV_AT_EPOCH":8086,"BSTAR":0.00035789888,"MEAN_MOTION_DOT":5.634e-5,"MEAN_MOTION_DDOT":0}]
